ORBCOMM FM20            
1 25416U 98046D   25170.41221053  .00000527  00000+0  22266-3 0  9992
2 25416  44.9924 170.7332 0003155 288.2798  71.7706 14.37215237404587
ORBCOMM FM15            
1 25418U 98046F   25170.03500725  .00000679  00000+0  26602-3 0  9994
2 25418  44.9951 169.2167 0006469 300.5919  59.4290 14.38561496404518
ORBCOMM FM14            
1 25419U 98046G   25170.39948994  .00000734  00000+0  28174-3 0  9996
2 25419  44.9939 165.7175 0005390 297.5494  62.4807 14.38922527404536
ORBCOMM FM13            
1 25420U 98046H   25170.51553229  .00000594  00000+0  24257-3 0  9997
2 25420  44.9955 173.1657 0007437 287.8776  72.1261 14.37677094403573
ORBCOMM FM21            
1 25475U 98053A   25170.24439427  .00000519  00000+0  21937-3 0  9997
2 25475  45.0083 259.7527 0003427 231.4781 128.5760 14.37356948397541
ORBCOMM FM22            
1 25476U 98053B   25170.48826611  .00000720  00000+0  28033-3 0  9997
2 25476  45.0072 253.4321 0005354 235.0525 124.9821 14.38398684397609
ORBCOMM FM23            
1 25477U 98053C   25170.45336656  .00000624  00000+0  25332-3 0  9992
2 25477  45.0081 260.8834 0004433 229.9516 130.0944 14.37539820397725
